{
  "type": "FeatureCollection",
  "features": [
    {
      "type": "Feature",
      "properties": {
        "norad_id": 66821,
        "name": "STARLINK-35966",
        "group": "last-30-days",
        "lat": -52.03646964839276,
        "lon": 8.363738251135945,
        "alt_km": 413.9162727065077,
        "timestamp": "2025-12-26T13:39:17.665613+00:00",
        "meta_object_name": "STARLINK-35966",
        "meta_object_id": "2025-280A",
        "meta_epoch": "2025-12-26T06:00:02.999808",
        "meta_mean_motion": 15.52436036,
        "meta_eccentricity": 0.00033072,
        "meta_inclination": 70.0005,
        "meta_ra_of_asc_node": 161.4104,
        "meta_arg_of_pericenter": 272.3477,
        "meta_mean_anomaly": 342.7656,
        "meta_ephemeris_type": 0,
        "meta_classification_type": "U",
        "meta_norad_cat_id": 66821,
        "meta_element_set_no": 999,
        "meta_rev_at_epoch": 506,
        "meta_bstar": 0.0019164311,
        "meta_mean_motion_dot": 0.00119161,
        "meta_mean_motion_ddot": 0,
        "tle_line1": "1 66821U 25280A   25360.25003472  .00119161  00000+0  19164-2 0  9990",
        "tle_line2": "2 66821  70.0005 161.4104 0003307 272.3477 342.7656 15.52436036  5068"
      },
      "geometry": {
        "type": "Point",
        "coordinates": [
          8.363738251135945,
          -52.03646964839276
        ]
      }
    },
    {
      "type": "Feature",
      "properties": {
        "norad_id": 66822,
        "name": "STARLINK-35958",
        "group": "last-30-days",
        "lat": -53.79379331894008,
        "lon": 10.374001326930859,
        "alt_km": 413.3435826675468,
        "timestamp": "2025-12-26T13:39:17.665628+00:00",
        "meta_object_name": "STARLINK-35958",
        "meta_object_id": "2025-280B",
        "meta_epoch": "2025-12-25T21:09:55.876608",
        "meta_mean_motion": 15.52524711,
        "meta_eccentricity": 0.0003381,
        "meta_inclination": 70.0003,
        "meta_ra_of_asc_node": 162.418,
        "meta_arg_of_pericenter": 268.924,
        "meta_mean_anomaly": 91.156,
        "meta_ephemeris_type": 0,
        "meta_classification_type": "U",
        "meta_norad_cat_id": 66822,
        "meta_element_set_no": 999,
        "meta_rev_at_epoch": 497,
        "meta_bstar": 0.0016095,
        "meta_mean_motion_dot": 0.00100126,
        "meta_mean_motion_ddot": 0,
        "tle_line1": "1 66822U 25280B   25359.88189672  .00100126  00000+0  16095-2 0  9996",
        "tle_line2": "2 66822  70.0003 162.4180 0003381 268.9240  91.1560 15.52524711  4979"
      },
      "geometry": {
        "type": "Point",
        "coordinates": [
          10.374001326930859,
          -53.79379331894008
        ]
      }
    },
    {
      "type": "Feature",
      "properties": {
        "norad_id": 66823,
        "name": "STARLINK-35957",
        "group": "last-30-days",
        "lat": -55.18143138857539,
        "lon": 12.113444600514303,
        "alt_km": 413.9251109650895,
        "timestamp": "2025-12-26T13:39:17.665639+00:00",
        "meta_object_name": "STARLINK-35957",
        "meta_object_id": "2025-280C",
        "meta_epoch": "2025-12-26T06:26:08.806272",
        "meta_mean_motion": 15.52584083,
        "meta_eccentricity": 0.00029536,
        "meta_inclination": 70.0004,
        "meta_ra_of_asc_node": 161.3572,
        "meta_arg_of_pericenter": 279.9093,
        "meta_mean_anomaly": 80.176,
        "meta_ephemeris_type": 0,
        "meta_classification_type": "U",
        "meta_norad_cat_id": 66823,
        "meta_element_set_no": 999,
        "meta_rev_at_epoch": 503,
        "meta_bstar": 0.0011787577,
        "meta_mean_motion_dot": 0.0007319,
        "meta_mean_motion_ddot": 0,
        "tle_line1": "1 66823U 25280C   25360.26815748  .00073190  00000+0  11788-2 0  9995",
        "tle_line2": "2 66823  70.0004 161.3572 0002953 279.9093  80.1760 15.52584083  5032"
      },
      "geometry": {
        "type": "Point",
        "coordinates": [
          12.113444600514303,
          -55.18143138857539
        ]
      }
    },
    {
      "type": "Feature",
      "properties": {
        "norad_id": 66824,
        "name": "STARLINK-35896",
        "group": "last-30-days",
        "lat": -56.78152659709807,
        "lon": 14.324345516314946,
        "alt_km": 413.8867649513804,
        "timestamp": "2025-12-26T13:39:17.665648+00:00",
        "meta_object_name": "STARLINK-35896",
        "meta_object_id": "2025-280D",
        "meta_epoch": "2025-12-26T06:25:36.630912",
        "meta_mean_motion": 15.52525848,
        "meta_eccentricity": 0.00030344,
        "meta_inclination": 70.0004,
        "meta_ra_of_asc_node": 161.3555,
        "meta_arg_of_pericenter": 274.3139,
        "meta_mean_anomaly": 85.7701,
        "meta_ephemeris_type": 0,
        "meta_classification_type": "U",
        "meta_norad_cat_id": 66824,
        "meta_element_set_no": 999,
        "meta_rev_at_epoch": 503,
        "meta_bstar": 0.0015480087,
        "meta_mean_motion_dot": 0.00096249,
        "meta_mean_motion_ddot": 0,
        "tle_line1": "1 66824U 25280D   25360.26778508  .00096249  00000+0  15480-2 0  9991",
        "tle_line2": "2 66824  70.0004 161.3555 0003034 274.3139  85.7701 15.52525848  5035"
      },
      "geometry": {
        "type": "Point",
        "coordinates": [
          14.324345516314946,
          -56.78152659709807
        ]
      }
    },
    {
      "type": "Feature",
      "properties": {
        "norad_id": 66825,
        "name": "STARLINK-35476",
        "group": "last-30-days",
        "lat": -58.25656215865324,
        "lon": 16.595455360198585,
        "alt_km": 413.8206835666506,
        "timestamp": "2025-12-26T13:39:17.665659+00:00",
        "meta_object_name": "STARLINK-35476",
        "meta_object_id": "2025-280E",
        "meta_epoch": "2025-12-26T06:25:06.959424",
        "meta_mean_motion": 15.52530885,
        "meta_eccentricity": 0.00032264,
        "meta_inclination": 70.0004,
        "meta_ra_of_asc_node": 161.3541,
        "meta_arg_of_pericenter": 277.2006,
        "meta_mean_anomaly": 82.8814,
        "meta_ephemeris_type": 0,
        "meta_classification_type": "U",
        "meta_norad_cat_id": 66825,
        "meta_element_set_no": 999,
        "meta_rev_at_epoch": 503,
        "meta_bstar": 0.0014300632,
        "meta_mean_motion_dot": 0.00088838,
        "meta_mean_motion_ddot": 0,
        "tle_line1": "1 66825U 25280E   25360.26744166  .00088838  00000+0  14301-2 0  9991",
        "tle_line2": "2 66825  70.0004 161.3541 0003226 277.2006  82.8814 15.52530885  5039"
      },
      "geometry": {
        "type": "Point",
        "coordinates": [
          16.595455360198585,
          -58.25656215865324
        ]
      }
    },
    {
      "type": "Feature",
      "properties": {
        "norad_id": 66826,
        "name": "STARLINK-35898",
        "group": "last-30-days",
        "lat": -59.485766895226824,
        "lon": 18.694785546847346,
        "alt_km": 414.2604216464706,
        "timestamp": "2025-12-26T13:39:17.665668+00:00",
        "meta_object_name": "STARLINK-35898",
        "meta_object_id": "2025-280F",
        "meta_epoch": "2025-12-26T06:24:40.324896",
        "meta_mean_motion": 15.52461862,
        "meta_eccentricity": 0.00028837,
        "meta_inclination": 70.0005,
        "meta_ra_of_asc_node": 161.3527,
        "meta_arg_of_pericenter": 276.3822,
        "meta_mean_anomaly": 83.7036,
        "meta_ephemeris_type": 0,
        "meta_classification_type": "U",
        "meta_norad_cat_id": 66826,
        "meta_element_set_no": 999,
        "meta_rev_at_epoch": 503,
        "meta_bstar": 0.00088590236,
        "meta_mean_motion_dot": 0.00054594,
        "meta_mean_motion_ddot": 0,
        "tle_line1": "1 66826U 25280F   25360.26713339  .00054594  00000+0  88590-3 0  9994",
        "tle_line2": "2 66826  70.0005 161.3527 0002883 276.3822  83.7036 15.52461862  5033"
      },
      "geometry": {
        "type": "Point",
        "coordinates": [
          18.694785546847346,
          -59.485766895226824
        ]
      }
    },
    {
      "type": "Feature",
      "properties": {
        "norad_id": 66827,
        "name": "STARLINK-35959",
        "group": "last-30-days",
        "lat": -61.019413549995,
        "lon": 21.64032202173793,
        "alt_km": 413.670645662065,
        "timestamp": "2025-12-26T13:39:17.665678+00:00",
        "meta_object_name": "STARLINK-35959",
        "meta_object_id": "2025-280G",
        "meta_epoch": "2025-12-26T06:24:08.981568",
        "meta_mean_motion": 15.52548169,
        "meta_eccentricity": 0.0003246,
        "meta_inclination": 70.0006,
        "meta_ra_of_asc_node": 161.351,
        "meta_arg_of_pericenter": 271.2913,
        "meta_mean_anomaly": 88.7902,
        "meta_ephemeris_type": 0,
        "meta_classification_type": "U",
        "meta_norad_cat_id": 66827,
        "meta_element_set_no": 999,
        "meta_rev_at_epoch": 503,
        "meta_bstar": 0.0011234991,
        "meta_mean_motion_dot": 0.00069632,
        "meta_mean_motion_ddot": 0,
        "tle_line1": "1 66827U 25280G   25360.26677062  .00069632  00000+0  11235-2 0  9997",
        "tle_line2": "2 66827  70.0006 161.3510 0003246 271.2913  88.7902 15.52548169  5039"
      },
      "geometry": {
        "type": "Point",
        "coordinates": [
          21.64032202173793,
          -61.019413549995
        ]
      }
    }
  ]
}